NORAD_CAT_ID,OBJECT_NAME,OBJECT_TYPE,EPOCH,MEAN_MOTION,ECCENTRICITY,INCLINATION,RA_OF_ASC_NODE,ARG_OF_PERICENTER,MEAN_ANOMALY,BSTAR,MEAN_MOTION_DOT,MEAN_MOTION_DDOT,TLE_LINE0,TLE_LINE1,TLE_LINE2,SEMIMAJOR_AXIS,PERIOD,APOGEE,PERIGEE,DECAYED
54051.0,STARLINK-5195,PAYLOAD,2024-01-27 21:09:00,15.08838751,0.0001402,53.2158,209.1457,80.8154,279.2997,1.8824e-05,1.2e-07,0.0,0 STARLINK-5195,1 54051U 22136A   24027.88126093  .00000012  00000-0  18824-4 0  9991,2 54051  53.2158 209.1457 0001402  80.8154 279.2997 15.08838751 70325,6917.884,95.438,540.719,538.779,0.0
54051.0,STARLINK-5195,PAYLOAD,2024-01-28 11:27:29,15.0883733,0.0001506,53.2164,206.4739,81.4708,278.6454,5.0365e-05,5.14e-06,0.0,0 STARLINK-5195,1 54051U 22136A   24028.47742386  .00000514  00000-0  50365-4 0  9999,2 54051  53.2164 206.4739 0001506  81.4708 278.6454 15.08837330 70415,6917.889,95.438,540.795,538.712,0.0
54051.0,STARLINK-5195,PAYLOAD,2024-01-28 19:24:25,15.08839674,0.0001461,53.2171,204.9868,81.5593,278.5565,6.7637e-05,7.89e-06,0.0,0 STARLINK-5195,1 54051U 22136A   24028.80862528  .00000789  00000-0  67637-4 0  9991,2 54051  53.2171 204.9868 0001461  81.5593 278.5565 15.08839674 70462,6917.881,95.438,540.757,538.736,0.0
54051.0,STARLINK-5195,PAYLOAD,2024-01-29 11:18:16,15.0884117,0.000134,53.2168,202.012,91.8221,268.2925,0.00011361,1.521e-05,0.0,0 STARLINK-5195,1 54051U 22136A   24029.47102335  .00001521  00000-0  11361-3 0  9995,2 54051  53.2168 202.0120 0001340  91.8221 268.2925 15.08841170 71041,6917.877,95.437,540.669,538.815,0.0
54051.0,STARLINK-5195,PAYLOAD,2024-01-30 14:19:49,15.08842266,0.0001315,53.217,196.9571,86.5666,273.5476,8.3174e-05,1.036e-05,0.0,0 STARLINK-5195,1 54051U 22136A   24030.59710454  .00001036  00000-0  83174-4 0  9990,2 54051  53.2170 196.9571 0001315  86.5666 273.5476 15.08842266 70733,6917.873,95.437,540.648,538.829,0.0
54051.0,STARLINK-5195,PAYLOAD,2024-01-30 17:30:36,15.0884216,0.0001309,53.2168,196.3623,86.1019,274.0122,7.7438e-05,9.45e-06,0.0,0 STARLINK-5195,1 54051U 22136A   24030.72958448  .00000945  00000-0  77438-4 0  9996,2 54051  53.2168 196.3623 0001309  86.1019 274.0122 15.08842160 71236,6917.874,95.437,540.644,538.833,0.0
54051.0,STARLINK-5195,PAYLOAD,2024-02-01 10:50:37,15.08839571,0.0001377,53.2171,188.6308,85.3082,274.8067,3.2824e-05,2.35e-06,0.0,0 STARLINK-5195,1 54051U 22136A   24032.45182666  .00000235  00000-0  32824-4 0  9991,2 54051  53.2171 188.6308 0001377  85.3082 274.8067 15.08839571 71496,6917.882,95.438,540.699,538.794,0.0
54051.0,STARLINK-5195,PAYLOAD,2024-02-02 13:52:11,15.08841489,0.0001343,53.2173,183.5754,90.6556,269.459,4.9589e-05,5.01e-06,0.0,0 STARLINK-5195,1 54051U 22136A   24033.57790574  .00000501  00000-0  49589-4 0  9990,2 54051  53.2173 183.5754 0001343  90.6556 269.4590 15.08841489 71183,6917.876,95.437,540.67,538.812,0.0
54051.0,STARLINK-5195,PAYLOAD,2024-02-02 15:27:34,15.08841794,0.0001344,53.2173,183.2781,90.3508,269.7638,5.1054e-05,5.25e-06,0.0,0 STARLINK-5195,1 54051U 22136A   24033.64414539  .00000525  00000-0  51054-4 0  9998,2 54051  53.2173 183.2781 0001344  90.3508 269.7638 15.08841794 71674,6917.875,95.437,540.67,538.81,0.0
54051.0,STARLINK-5195,PAYLOAD,2024-02-03 13:42:58,15.08837813,0.0001335,53.2192,179.1201,76.1153,283.9988,3.7413e-05,3.08e-06,0.0,0 STARLINK-5195,1 54051U 22136A   24034.57151176  .00000308  00000-0  37413-4 0  9998,2 54051  53.2192 179.1201 0001335  76.1153 283.9988 15.08837813 71330,6917.887,95.438,540.676,538.829,0.0
54051.0,STARLINK-5195,PAYLOAD,2024-02-03 18:29:07,15.08841239,0.000145,53.2184,178.2242,91.7591,268.3567,6.4431e-05,7.38e-06,0.0,0 STARLINK-5195,1 54051U 22136A   24034.77022795  .00000738  00000-0  64431-4 0  9991,2 54051  53.2184 178.2242 0001450  91.7591 268.3567 15.08841239 71846,6917.877,95.437,540.745,538.739,0.0
54051.0,STARLINK-5195,PAYLOAD,2024-02-04 13:33:45,15.08843758,0.0001467,53.2187,174.6516,86.2968,273.8192,8.2694e-05,1.028e-05,0.0,0 STARLINK-5195,1 54051U 22136A   24035.56510579  .00001028  00000-0  82694-4 0  9995,2 54051  53.2187 174.6516 0001467  86.2968 273.8192 15.08843758 71481,6917.869,95.437,540.749,538.719,0.0
54051.0,STARLINK-5195,PAYLOAD,2024-02-04 18:19:54,15.0884468,0.0001389,53.2183,173.7599,88.1561,271.9591,0.00015275,2.144e-05,0.0,0 STARLINK-5195,1 54051U 22136A   24035.76382319  .00002144  00000-0  15275-3 0  9996,2 54051  53.2183 173.7599 0001389  88.1561 271.9591 15.08844680 71512,6917.866,95.437,540.692,538.77,0.0
54051.0,STARLINK-5195,PAYLOAD,2024-02-05 13:24:32,15.0883979,0.0001311,53.2181,170.191,92.8906,267.2236,2.769e-05,1.53e-06,0.0,0 STARLINK-5195,1 54051U 22136A   24036.55871009  .00000153  00000-0  27690-4 0  9996,2 54051  53.2181 170.1910 0001311  92.8906 267.2236 15.08839790 71631,6917.881,95.438,540.653,538.839,0.0
54051.0,STARLINK-5195,PAYLOAD,2024-02-05 16:35:18,15.0884289,0.0001428,53.2178,169.5985,84.4866,275.6289,5.5483e-05,5.95e-06,0.0,0 STARLINK-5195,1 54051U 22136A   24036.69118821  .00000595  00000-0  55483-4 0  9998,2 54051  53.2178 169.5985 0001428  84.4866 275.6289 15.08842890 72134,6917.872,95.437,540.724,538.749,0.0
54051.0,STARLINK-5195,PAYLOAD,2024-02-06 13:15:19,15.08842198,0.000138,53.2174,165.7342,81.4961,278.6188,5.7511e-05,6.28e-06,0.0,0 STARLINK-5195,1 54051U 22136A   24037.55230851  .00000628  00000-0  57511-4 0  9993,2 54051  53.2174 165.7342 0001380  81.4961 278.6188 15.08842198 71787,6917.874,95.437,540.693,538.784,0.0
54051.0,STARLINK-5195,PAYLOAD,2024-02-06 14:50:42,15.08837901,0.0001432,53.2174,165.4377,80.9338,279.1816,0.00013432,1.85e-05,0.0,0 STARLINK-5195,1 54051U 22136A   24037.61854896  .00001850  00000-0  13432-3 0  9992,2 54051  53.2174 165.4377 0001432  80.9338 279.1816 15.08837901 71793,6917.887,95.438,540.742,538.761,0.0
54051.0,STARLINK-5195,PAYLOAD,2024-02-07 11:30:43,15.08839235,0.000141,53.2163,161.5715,77.6103,282.5047,1.8047e-05,-1e-08,0.0,0 STARLINK-5195,1 54051U 22136A   24038.47967303 -.00000001  00000-0  18047-4 0  9991,2 54051  53.2163 161.5715 0001410  77.6103 282.5047 15.08839235 72408,6917.883,95.438,540.723,538.772,0.0
54051.0,STARLINK-5195,PAYLOAD,2024-02-07 14:41:29,15.08843382,0.0001249,53.2164,160.9743,90.867,269.2466,3.1629e-05,2.16e-06,0.0,0 STARLINK-5195,1 54051U 22136A   24038.61214914  .00000216  00000-0  31629-4 0  9998,2 54051  53.2164 160.9743 0001249  90.8670 269.2466 15.08843382 71942,6917.87,95.437,540.599,538.871,0.0
54051.0,STARLINK-5195,PAYLOAD,2024-02-08 11:21:31,15.0883028,0.0001317,53.2175,157.1104,89.9492,270.1651,-7.1768e-06,-4.02e-06,0.0,0 STARLINK-5195,1 54051U 22136A   24039.47328226 -.00000402  00000-0 -71768-5 0  9993,2 54051  53.2175 157.1104 0001317  89.9492 270.1651 15.08830280 72558,6917.91,95.438,540.686,538.864,0.0
54051.0,STARLINK-5195,PAYLOAD,2024-02-08 14:32:17,15.08837079,0.0001456,53.2178,156.5161,96.2797,263.8361,-4.7797e-05,-1.049e-05,0.0,0 STARLINK-5195,1 54051U 22136A   24039.60575991 -.00001049  00000-0 -47797-4 0  9993,2 54051  53.2178 156.5161 0001456  96.2797 263.8361 15.08837079 72099,6917.889,95.438,540.762,538.747,0.0
54051.0,STARLINK-5195,PAYLOAD,2024-02-08 17:43:03,15.08842146,0.0001454,53.217,155.919,95.7227,264.3931,-7.3369e-05,-1.456e-05,0.0,0 STARLINK-5195,1 54051U 22136A   24039.73823744 -.00001456  00000-0 -73369-4 0  9995,2 54051  53.2170 155.9190 0001454  95.7227 264.3931 15.08842146 72591,6917.874,95.437,540.745,538.733,0.0
54051.0,STARLINK-5195,PAYLOAD,2024-02-09 12:47:40,15.08844107,0.0001352,53.2167,152.3507,95.7562,264.3585,0.00012182,1.652e-05,0.0,0 STARLINK-5195,1 54051U 22136A   24040.53311196  .00001652  00000-0  12182-3 0  9999,2 54051  53.2167 152.3507 0001352  95.7562 264.3585 15.08844107 72234,6917.868,95.437,540.668,538.798,0.0
54051.0,STARLINK-5195,PAYLOAD,2024-02-10 11:03:05,15.08840195,0.0001495,53.2166,148.1899,111.5632,248.5519,6.7873e-05,7.92e-06,0.0,0 STARLINK-5195,1 54051U 22136A   24041.46047771  .00000792  00000-0  67873-4 0  9999,2 54051  53.2166 148.1899 0001495 111.5632 248.5519 15.08840195 72855,6917.88,95.438,540.779,538.711,0.0
54051.0,STARLINK-5195,PAYLOAD,2024-02-10 14:13:51,15.0884215,0.0001491,53.2171,147.5965,107.2449,252.8706,8.542e-05,1.072e-05,0.0,0 STARLINK-5195,1 54051U 22136A   24041.59295620  .00001072  00000-0  85420-4 0  9991,2 54051  53.2171 147.5965 0001491 107.2449 252.8706 15.08842150 72390,6917.874,95.437,540.77,538.707,0.0
54051.0,STARLINK-5195,PAYLOAD,2024-02-11 12:29:15,15.08844361,0.0001788,53.2173,143.4316,117.6137,242.5037,4.3252e-05,4e-06,0.0,0 STARLINK-5195,1 54051U 22136A   24042.52031439  .00000400  00000-0  43252-4 0  9992,2 54051  53.2173 143.4316 0001788 117.6137 242.5037 15.08844361 73014,6917.867,95.437,540.969,538.495,0.0
54051.0,STARLINK-5195,PAYLOAD,2024-02-11 14:04:38,15.08846314,0.0001735,53.2179,143.1347,88.524,271.5951,8.2944e-05,1.032e-05,0.0,0 STARLINK-5195,1 54051U 22136A   24042.58655390  .00001032  00000-0  82944-4 0  9999,2 54051  53.2179 143.1347 0001735  88.5240 271.5951 15.08846314 72548,6917.861,95.437,540.926,538.526,0.0
54051.0,STARLINK-5195,PAYLOAD,2024-02-11 15:40:00,15.08858114,0.0002371,53.2182,142.8355,131.4541,228.6655,1.9106e-05,1.6e-07,0.0,0 STARLINK-5195,1 54051U 22136A   24042.65278555  .00000016  00000-0  19106-4 0  9992,2 54051  53.2182 142.8355 0002371 131.4541 228.6655 15.08858114 73036,6917.825,95.436,541.33,538.05,0.0
54051.0,STARLINK-5195,PAYLOAD,2024-02-12 12:20:01,15.088472,0.0001675,53.2177,138.9737,95.4616,264.6567,7.9218e-05,9.73e-06,0.0,0 STARLINK-5195,1 54051U 22136A   24043.51391066  .00000973  00000-0  79218-4 0  9993,2 54051  53.2177 138.9737 0001675  95.4616 264.6567 15.08847200 73168,6917.858,95.437,540.882,538.565,0.0
54051.0,STARLINK-5195,PAYLOAD,2024-02-12 13:55:24,15.08850322,0.0001711,53.2178,138.6773,74.3408,285.7773,9.3657e-05,1.203e-05,0.0,0 STARLINK-5195,1 54051U 22136A   24043.58014936  .00001203  00000-0  93657-4 0  9998,2 54051  53.2178 138.6773 0001711  74.3408 285.7773 15.08850322 72691,6917.849,95.437,540.897,538.53,0.0
